{
  "type": "FeatureCollection",
  "generator": "custom_patch_7.2C_PRO",
  "timestamp": "2026-01-05T17:44:17.971358Z",
  "features": [
    {
      "type": "Feature",
      "id": "Node 1",
      "properties": {
        "label": "Node 1",
        "highway": "traffic_signals",
        "source": "custom_text_nodes"
      },
      "geometry": {
        "type": "Point",
        "coordinates": [
          21.164300790172888,
          42.65493574980663
        ]
      }
    },
    {
      "type": "Feature",
      "id": "Node 2",
      "properties": {
        "label": "Node 2",
        "highway": "traffic_signals",
        "source": "custom_text_nodes"
      },
      "geometry": {
        "type": "Point",
        "coordinates": [
          21.164294755202604,
          42.65485989618026
        ]
      }
    },
    {
      "type": "Feature",
      "id": "Node 3",
      "properties": {
        "label": "Node 3",
        "highway": "traffic_signals",
        "source": "custom_text_nodes"
      },
      "geometry": {
        "type": "Point",
        "coordinates": [
          21.164188137394262,
          42.65479686455118
        ]
      }
    },
    {
      "type": "Feature",
      "id": "Node 4",
      "properties": {
        "label": "Node 4",
        "highway": "traffic_signals",
        "source": "custom_text_nodes"
      },
      "geometry": {
        "type": "Point",
        "coordinates": [
          21.16404933307774,
          42.65481076541961
        ]
      }
    },
    {
      "type": "Feature",
      "id": "Node 5",
      "properties": {
        "label": "Node 5",
        "highway": "traffic_signals",
        "source": "custom_text_nodes"
      },
      "geometry": {
        "type": "Point",
        "coordinates": [
          21.163985630613638,
          42.65489561921209
        ]
      }
    },
    {
      "type": "Feature",
      "id": "Node 6",
      "properties": {
        "label": "Node 6",
        "highway": "traffic_signals",
        "source": "custom_text_nodes"
      },
      "geometry": {
        "type": "Point",
        "coordinates": [
          21.16399937693484,
          42.654978731432365
        ]
      }
    },
    {
      "type": "Feature",
      "id": "Node 7",
      "properties": {
        "label": "Node 7",
        "highway": "traffic_signals",
        "source": "custom_text_nodes"
      },
      "geometry": {
        "type": "Point",
        "coordinates": [
          21.164079172653032,
          42.65503695461268
        ]
      }
    },
    {
      "type": "Feature",
      "id": "Node 8",
      "properties": {
        "label": "Node 8",
        "highway": "traffic_signals",
        "source": "custom_text_nodes"
      },
      "geometry": {
        "type": "Point",
        "coordinates": [
          21.164218982797934,
          42.65502907953775
        ]
      }
    },
    {
      "type": "Feature",
      "id": "Splitlane Node 1",
      "properties": {
        "label": "Splitlane Node 1",
        "highway": "traffic_signals",
        "source": "custom_text_nodes",
        "id": "Splitlane Node 1"
      },
      "geometry": {
        "type": "Point",
        "coordinates": [
          21.16431889508374,
          42.65500793549601
        ]
      }
    },
    {
      "type": "Feature",
      "id": "Splitlane Node 2",
      "properties": {
        "label": "Splitlane Node 2",
        "highway": "traffic_signals",
        "source": "custom_text_nodes",
        "id": "Splitlane Node 2"
      },
      "geometry": {
        "type": "Point",
        "coordinates": [
          21.16432928864367,
          42.65476337608266
        ]
      }
    },
    {
      "type": "Feature",
      "id": "Splitlane Node 3",
      "properties": {
        "label": "Splitlane Node 3",
        "highway": "traffic_signals",
        "source": "custom_text_nodes",
        "id": "Splitlane Node 3"
      },
      "geometry": {
        "type": "Point",
        "coordinates": [
          21.163925280910803,
          42.65479002199396
        ]
      }
    },
    {
      "type": "Feature",
      "id": "Node 9",
      "properties": {
        "label": "Node 9",
        "highway": "traffic_signals",
        "source": "custom_text_nodes"
      },
      "geometry": {
        "type": "Point",
        "coordinates": [
          21.164526730151934,
          42.65929152842708
        ]
      }
    },
    {
      "type": "Feature",
      "id": "Node 10",
      "properties": {
        "label": "Node 10",
        "highway": "traffic_signals",
        "source": "custom_text_nodes"
      },
      "geometry": {
        "type": "Point",
        "coordinates": [
          21.164653778316445,
          42.65930932907706
        ]
      }
    },
    {
      "type": "Feature",
      "id": "Node 11",
      "properties": {
        "label": "Node 11",
        "highway": "traffic_signals",
        "source": "custom_text_nodes"
      },
      "geometry": {
        "type": "Point",
        "coordinates": [
          21.164750694604678,
          42.65915058794831
        ]
      }
    },
    {
      "type": "Feature",
      "id": "Node 12",
      "properties": {
        "label": "Node 12",
        "highway": "traffic_signals",
        "source": "custom_text_nodes"
      },
      "geometry": {
        "type": "Point",
        "coordinates": [
          21.164610884459776,
          42.659031760668405
        ]
      }
    },
    {
      "type": "Feature",
      "id": "Node 13",
      "properties": {
        "label": "Node 13",
        "highway": "traffic_signals",
        "source": "custom_text_nodes"
      },
      "geometry": {
        "type": "Point",
        "coordinates": [
          21.16448113259868,
          42.65904509041608
        ]
      }
    },
    {
      "type": "Feature",
      "id": "Node 14",
      "properties": {
        "label": "Node 14",
        "highway": "traffic_signals",
        "source": "custom_text_nodes"
      },
      "geometry": {
        "type": "Point",
        "coordinates": [
          21.165247343644452,
          42.665590827728224
        ]
      }
    },
    {
      "type": "Feature",
      "id": "Node 15",
      "properties": {
        "label": "Node 15",
        "highway": "traffic_signals",
        "source": "custom_text_nodes"
      },
      "geometry": {
        "type": "Point",
        "coordinates": [
          21.165355302557302,
          42.66568269307136
        ]
      }
    },
    {
      "type": "Feature",
      "id": "Node 16",
      "properties": {
        "label": "Node 16",
        "highway": "traffic_signals",
        "source": "custom_text_nodes"
      },
      "geometry": {
        "type": "Point",
        "coordinates": [
          21.16513536141808,
          42.665824635699565
        ]
      }
    },
    {
      "type": "Feature",
      "id": "Node 17",
      "properties": {
        "label": "Node 17",
        "highway": "traffic_signals",
        "source": "custom_text_nodes"
      },
      "geometry": {
        "type": "Point",
        "coordinates": [
          21.163801849806788,
          42.6689593805625
        ]
      }
    },
    {
      "type": "Feature",
      "id": "Node 18",
      "properties": {
        "label": "Node 18",
        "highway": "traffic_signals",
        "source": "custom_text_nodes"
      },
      "geometry": {
        "type": "Point",
        "coordinates": [
          21.163604372168066,
          42.66908906665065
        ]
      }
    },
    {
      "type": "Feature",
      "id": "Node 19",
      "properties": {
        "label": "Node 19",
        "highway": "traffic_signals",
        "source": "custom_text_nodes"
      },
      "geometry": {
        "type": "Point",
        "coordinates": [
          21.161860538183852,
          42.67126271260278
        ]
      }
    },
    {
      "type": "Feature",
      "id": "Node 20",
      "properties": {
        "label": "Node 20",
        "highway": "traffic_signals",
        "source": "custom_text_nodes"
      },
      "geometry": {
        "type": "Point",
        "coordinates": [
          21.16222104417499,
          42.67158753643928
        ]
      }
    },
    {
      "type": "Feature",
      "id": "Node 21",
      "properties": {
        "label": "Node 21",
        "highway": "traffic_signals",
        "source": "custom_text_nodes"
      },
      "geometry": {
        "type": "Point",
        "coordinates": [
          21.16217539182433,
          42.671663301077146
        ]
      }
    },
    {
      "type": "Feature",
      "id": "Node 22",
      "properties": {
        "label": "Node 22",
        "highway": "traffic_signals",
        "source": "custom_text_nodes"
      },
      "geometry": {
        "type": "Point",
        "coordinates": [
          21.15990083679241,
          42.65557645464569
        ]
      }
    },
    {
      "type": "Feature",
      "id": "Node 23",
      "properties": {
        "label": "Node 23",
        "highway": "traffic_signals",
        "source": "custom_text_nodes"
      },
      "geometry": {
        "type": "Point",
        "coordinates": [
          21.15986764445585,
          42.6554877028011
        ]
      }
    },
    {
      "type": "Feature",
      "id": "Node 24",
      "properties": {
        "label": "Node 24",
        "highway": "traffic_signals",
        "source": "custom_text_nodes"
      },
      "geometry": {
        "type": "Point",
        "coordinates": [
          21.159682236757696,
          42.6553718274378
        ]
      }
    },
    {
      "type": "Feature",
      "id": "Node 25",
      "properties": {
        "label": "Node 25",
        "highway": "traffic_signals",
        "source": "custom_text_nodes"
      },
      "geometry": {
        "type": "Point",
        "coordinates": [
          21.159547791030825,
          42.65539008949568
        ]
      }
    },
    {
      "type": "Feature",
      "id": "Node 26",
      "properties": {
        "label": "Node 26",
        "highway": "traffic_signals",
        "source": "custom_text_nodes"
      },
      "geometry": {
        "type": "Point",
        "coordinates": [
          21.159330867376745,
          42.655562214906965
        ]
      }
    },
    {
      "type": "Feature",
      "id": "Node 27",
      "properties": {
        "label": "Node 27",
        "highway": "traffic_signals",
        "source": "custom_text_nodes"
      },
      "geometry": {
        "type": "Point",
        "coordinates": [
          21.15935802474302,
          42.6556539563699
        ]
      }
    },
    {
      "type": "Feature",
      "id": "Node 28",
      "properties": {
        "label": "Node 28",
        "highway": "traffic_signals",
        "source": "custom_text_nodes"
      },
      "geometry": {
        "type": "Point",
        "coordinates": [
          21.156062641367242,
          42.655151919466995
        ]
      }
    },
    {
      "type": "Feature",
      "id": "Node 29",
      "properties": {
        "label": "Node 29",
        "highway": "traffic_signals",
        "source": "custom_text_nodes"
      },
      "geometry": {
        "type": "Point",
        "coordinates": [
          21.156011008843706,
          42.65523381387134
        ]
      }
    },
    {
      "type": "Feature",
      "id": "Node 30",
      "properties": {
        "label": "Node 30",
        "highway": "traffic_signals",
        "source": "custom_text_nodes"
      },
      "geometry": {
        "type": "Point",
        "coordinates": [
          21.15580112598829,
          42.65525948868496
        ]
      }
    },
    {
      "type": "Feature",
      "id": "Node 31",
      "properties": {
        "label": "Node 31",
        "highway": "traffic_signals",
        "source": "custom_text_nodes"
      },
      "geometry": {
        "type": "Point",
        "coordinates": [
          21.15569853149347,
          42.655233875515556
        ]
      }
    },
    {
      "type": "Feature",
      "id": "Node 32",
      "properties": {
        "label": "Node 32",
        "highway": "traffic_signals",
        "source": "custom_text_nodes"
      },
      "geometry": {
        "type": "Point",
        "coordinates": [
          21.155587890371606,
          42.65511160407889
        ]
      }
    },
    {
      "type": "Feature",
      "id": "Node 33",
      "properties": {
        "label": "Node 33",
        "highway": "traffic_signals",
        "source": "custom_text_nodes"
      },
      "geometry": {
        "type": "Point",
        "coordinates": [
          21.155642205104158,
          42.65503174377962
        ]
      }
    },
    {
      "type": "Feature",
      "id": "Node 34",
      "properties": {
        "label": "Node 34",
        "highway": "traffic_signals",
        "source": "custom_text_nodes"
      },
      "geometry": {
        "type": "Point",
        "coordinates": [
          21.15283687069614,
          42.65433917795225
        ]
      }
    },
    {
      "type": "Feature",
      "id": "Node 35",
      "properties": {
        "label": "Node 35",
        "highway": "traffic_signals",
        "source": "custom_text_nodes"
      },
      "geometry": {
        "type": "Point",
        "coordinates": [
          21.152881462421014,
          42.65425732860367
        ]
      }
    },
    {
      "type": "Feature",
      "id": "Node 36",
      "properties": {
        "label": "Node 36",
        "highway": "traffic_signals",
        "source": "custom_text_nodes"
      },
      "geometry": {
        "type": "Point",
        "coordinates": [
          21.152785030326427,
          42.654113978404745
        ]
      }
    },
    {
      "type": "Feature",
      "id": "Node 37",
      "properties": {
        "label": "Node 37",
        "highway": "traffic_signals",
        "source": "custom_text_nodes"
      },
      "geometry": {
        "type": "Point",
        "coordinates": [
          21.152486883402915,
          42.6541517130674
        ]
      }
    },
    {
      "type": "Feature",
      "id": "Node 38",
      "properties": {
        "label": "Node 38",
        "highway": "traffic_signals",
        "source": "custom_text_nodes"
      },
      "geometry": {
        "type": "Point",
        "coordinates": [
          21.152448703249796,
          42.65423146331466
        ]
      }
    },
    {
      "type": "Feature",
      "id": "Node 39",
      "properties": {
        "label": "Node 39",
        "highway": "traffic_signals",
        "source": "custom_text_nodes"
      },
      "geometry": {
        "type": "Point",
        "coordinates": [
          21.15258729087753,
          42.654381025052636
        ]
      }
    },
    {
      "type": "Feature",
      "id": "Node 40",
      "properties": {
        "label": "Node 40",
        "highway": "traffic_signals",
        "source": "custom_text_nodes"
      },
      "geometry": {
        "type": "Point",
        "coordinates": [
          21.150485869983676,
          42.65359924611008
        ]
      }
    },
    {
      "type": "Feature",
      "id": "Node 41",
      "properties": {
        "label": "Node 41",
        "highway": "traffic_signals",
        "source": "custom_text_nodes"
      },
      "geometry": {
        "type": "Point",
        "coordinates": [
          21.150447313229087,
          42.653679154483214
        ]
      }
    },
    {
      "type": "Feature",
      "id": "Node 42",
      "properties": {
        "label": "Node 42",
        "highway": "traffic_signals",
        "source": "custom_text_nodes"
      },
      "geometry": {
        "type": "Point",
        "coordinates": [
          21.16501198757446,
          42.65022199474039
        ]
      }
    },
    {
      "type": "Feature",
      "id": "Node 43",
      "properties": {
        "label": "Node 43",
        "highway": "traffic_signals",
        "source": "custom_text_nodes"
      },
      "geometry": {
        "type": "Point",
        "coordinates": [
          21.16494560290134,
          42.650145087327225
        ]
      }
    },
    {
      "type": "Feature",
      "id": "Node 44",
      "properties": {
        "label": "Node 44",
        "highway": "traffic_signals",
        "source": "custom_text_nodes"
      },
      "geometry": {
        "type": "Point",
        "coordinates": [
          21.164832950122715,
          42.65013331231609
        ]
      }
    },
    {
      "type": "Feature",
      "id": "Node 45",
      "properties": {
        "label": "Node 45",
        "highway": "traffic_signals",
        "source": "custom_text_nodes"
      },
      "geometry": {
        "type": "Point",
        "coordinates": [
          21.164745107777478,
          42.65020732223123
        ]
      }
    },
    {
      "type": "Feature",
      "id": "Node 46",
      "properties": {
        "label": "Node 46",
        "highway": "traffic_signals",
        "source": "custom_text_nodes"
      },
      "geometry": {
        "type": "Point",
        "coordinates": [
          21.164714262373806,
          42.65033962128533
        ]
      }
    },
    {
      "type": "Feature",
      "id": "Node 47",
      "properties": {
        "label": "Node 47",
        "highway": "traffic_signals",
        "source": "custom_text_nodes"
      },
      "geometry": {
        "type": "Point",
        "coordinates": [
          21.16477796483791,
          42.65041757649091
        ]
      }
    },
    {
      "type": "Feature",
      "id": "Node 48",
      "properties": {
        "label": "Node 48",
        "highway": "traffic_signals",
        "source": "custom_text_nodes"
      },
      "geometry": {
        "type": "Point",
        "coordinates": [
          21.164915428049923,
          42.65042457365168
        ]
      }
    },
    {
      "type": "Feature",
      "id": "Node 49",
      "properties": {
        "label": "Node 49",
        "highway": "traffic_signals",
        "source": "custom_text_nodes"
      },
      "geometry": {
        "type": "Point",
        "coordinates": [
          21.164989859350086,
          42.650365421417575
        ]
      }
    },
    {
      "type": "Feature",
      "id": "Splitlane 7",
      "properties": {
        "label": "Splitlane 7",
        "highway": "traffic_signals",
        "source": "custom_text_nodes"
      },
      "geometry": {
        "type": "Point",
        "coordinates": [
          21.165099159367443,
          42.650300350812614
        ]
      }
    },
    {
      "type": "Feature",
      "id": "Splitlane 8",
      "properties": {
        "label": "Splitlane 8",
        "highway": "traffic_signals",
        "source": "custom_text_nodes"
      },
      "geometry": {
        "type": "Point",
        "coordinates": [
          21.16490402866161,
          42.6500292482465
        ]
      }
    },
    {
      "type": "Feature",
      "id": "Splitlane 9",
      "properties": {
        "label": "Splitlane 9",
        "highway": "traffic_signals",
        "source": "custom_text_nodes"
      },
      "geometry": {
        "type": "Point",
        "coordinates": [
          21.164608315117718,
          42.65028376719897
        ]
      }
    },
    {
      "type": "Feature",
      "id": "Splitlane 10",
      "properties": {
        "label": "Splitlane 10",
        "highway": "traffic_signals",
        "source": "custom_text_nodes"
      },
      "geometry": {
        "type": "Point",
        "coordinates": [
          21.16484300840652,
          42.65051279329392
        ]
      }
    },
    {
      "type": "Feature",
      "id": "Node 50",
      "properties": {
        "label": "Node 50",
        "highway": "traffic_signals",
        "source": "custom_text_nodes"
      },
      "geometry": {
        "type": "Point",
        "coordinates": [
          21.167837748682086,
          42.65397712859142
        ]
      }
    },
    {
      "type": "Feature",
      "id": "Node 51",
      "properties": {
        "label": "Node 51",
        "highway": "traffic_signals",
        "source": "custom_text_nodes"
      },
      "geometry": {
        "type": "Point",
        "coordinates": [
          21.167766065998897,
          42.65393989282816
        ]
      }
    },
    {
      "type": "Feature",
      "id": "Node 52",
      "properties": {
        "label": "Node 52",
        "highway": "traffic_signals",
        "source": "custom_text_nodes"
      },
      "geometry": {
        "type": "Point",
        "coordinates": [
          21.16765935042544,
          42.65394469904238
        ]
      }
    },
    {
      "type": "Feature",
      "id": "Node 53",
      "properties": {
        "label": "Node 53",
        "highway": "traffic_signals",
        "source": "custom_text_nodes"
      },
      "geometry": {
        "type": "Point",
        "coordinates": [
          21.16760599263873,
          42.654000218221846
        ]
      }
    },
    {
      "type": "Feature",
      "id": "Node 54",
      "properties": {
        "label": "Node 54",
        "highway": "traffic_signals",
        "source": "custom_text_nodes"
      },
      "geometry": {
        "type": "Point",
        "coordinates": [
          21.16761731095729,
          42.65409934002499
        ]
      }
    },
    {
      "type": "Feature",
      "id": "Node 55",
      "properties": {
        "label": "Node 55",
        "highway": "traffic_signals",
        "source": "custom_text_nodes"
      },
      "geometry": {
        "type": "Point",
        "coordinates": [
          21.167674980484364,
          42.65415882294073
        ]
      }
    },
    {
      "type": "Feature",
      "id": "Node 56",
      "properties": {
        "label": "Node 56",
        "highway": "traffic_signals",
        "source": "custom_text_nodes"
      },
      "geometry": {
        "type": "Point",
        "coordinates": [
          21.167770377739423,
          42.65417628875899
        ]
      }
    },
    {
      "type": "Feature",
      "id": "Node 57",
      "properties": {
        "label": "Node 57",
        "highway": "traffic_signals",
        "source": "custom_text_nodes"
      },
      "geometry": {
        "type": "Point",
        "coordinates": [
          21.167837748682285,
          42.65413672433809
        ]
      }
    },
    {
      "type": "Feature",
      "id": "Splitlane 12",
      "properties": {
        "label": "Splitlane 12",
        "highway": "traffic_signals",
        "source": "custom_text_nodes"
      },
      "geometry": {
        "type": "Point",
        "coordinates": [
          21.167697078153658,
          42.65385689886455
        ]
      }
    },
    {
      "type": "Feature",
      "id": "Splitlane 13",
      "properties": {
        "label": "Splitlane 13",
        "highway": "traffic_signals",
        "source": "custom_text_nodes"
      },
      "geometry": {
        "type": "Point",
        "coordinates": [
          21.16752406957228,
          42.654051154114455
        ]
      }
    },
    {
      "type": "Feature",
      "id": "Splitlane 14",
      "properties": {
        "label": "Splitlane 14",
        "highway": "traffic_signals",
        "source": "custom_text_nodes"
      },
      "geometry": {
        "type": "Point",
        "coordinates": [
          21.167691688478513,
          42.65424382320996
        ]
      }
    },
    {
      "type": "Feature",
      "id": "Node 58",
      "properties": {
        "label": "Node 58",
        "highway": "traffic_signals",
        "source": "custom_text_nodes"
      },
      "geometry": {
        "type": "Point",
        "coordinates": [
          21.158661407020155,
          42.65120769845585
        ]
      }
    },
    {
      "type": "Feature",
      "id": "Node 59",
      "properties": {
        "label": "Node 59",
        "highway": "traffic_signals",
        "source": "custom_text_nodes"
      },
      "geometry": {
        "type": "Point",
        "coordinates": [
          21.158633914377752,
          42.6511209285343
        ]
      }
    },
    {
      "type": "Feature",
      "id": "Node 60",
      "properties": {
        "label": "Node 60",
        "highway": "traffic_signals",
        "source": "custom_text_nodes"
      },
      "geometry": {
        "type": "Point",
        "coordinates": [
          21.158475664045874,
          42.65094245645011
        ]
      }
    },
    {
      "type": "Feature",
      "id": "Node 61",
      "properties": {
        "label": "Node 61",
        "highway": "traffic_signals",
        "source": "custom_text_nodes"
      },
      "geometry": {
        "type": "Point",
        "coordinates": [
          21.158355970468584,
          42.65095677430719
        ]
      }
    },
    {
      "type": "Feature",
      "id": "Node 62",
      "properties": {
        "label": "Node 62",
        "highway": "traffic_signals",
        "source": "custom_text_nodes"
      },
      "geometry": {
        "type": "Point",
        "coordinates": [
          21.158340090821547,
          42.651179993406025
        ]
      }
    },
    {
      "type": "Feature",
      "id": "Node 63",
      "properties": {
        "label": "Node 63",
        "highway": "traffic_signals",
        "source": "custom_text_nodes"
      },
      "geometry": {
        "type": "Point",
        "coordinates": [
          21.15850104423798,
          42.651474433697125
        ]
      }
    },
    {
      "type": "Feature",
      "id": "Node 64",
      "properties": {
        "label": "Node 64",
        "highway": "traffic_signals",
        "source": "custom_text_nodes"
      },
      "geometry": {
        "type": "Point",
        "coordinates": [
          21.158609581903917,
          42.651458881793985
        ]
      }
    },
    {
      "type": "Feature",
      "id": "Splitlane 15",
      "properties": {
        "label": "Splitlane 15",
        "highway": "traffic_signals",
        "source": "custom_text_nodes"
      },
      "geometry": {
        "type": "Point",
        "coordinates": [
          21.158618019506733,
          42.651046895336606
        ]
      }
    },
    {
      "type": "Feature",
      "id": "Node 65",
      "properties": {
        "label": "Node 65",
        "highway": "traffic_signals",
        "source": "custom_text_nodes"
      },
      "geometry": {
        "type": "Point",
        "coordinates": [
          21.157711047239044,
          42.659859392197276
        ]
      }
    },
    {
      "type": "Feature",
      "id": "Node 66",
      "properties": {
        "label": "Node 66",
        "highway": "traffic_signals",
        "source": "custom_text_nodes"
      },
      "geometry": {
        "type": "Point",
        "coordinates": [
          21.157667126066425,
          42.659825382517816
        ]
      }
    },
    {
      "type": "Feature",
      "id": "Node 67",
      "properties": {
        "label": "Node 67",
        "highway": "traffic_signals",
        "source": "custom_text_nodes"
      },
      "geometry": {
        "type": "Point",
        "coordinates": [
          21.15757894844506,
          42.6596740107102
        ]
      }
    },
    {
      "type": "Feature",
      "id": "Node 68",
      "properties": {
        "label": "Node 68",
        "highway": "traffic_signals",
        "source": "custom_text_nodes"
      },
      "geometry": {
        "type": "Point",
        "coordinates": [
          21.157647009498813,
          42.65963161790844
        ]
      }
    },
    {
      "type": "Feature",
      "id": "Node 69",
      "properties": {
        "label": "Node 69",
        "highway": "traffic_signals",
        "source": "custom_text_nodes"
      },
      "geometry": {
        "type": "Point",
        "coordinates": [
          21.15791991998862,
          42.659745228880965
        ]
      }
    },
    {
      "type": "Feature",
      "id": "Node 70",
      "properties": {
        "label": "Node 70",
        "highway": "traffic_signals",
        "source": "custom_text_nodes"
      },
      "geometry": {
        "type": "Point",
        "coordinates": [
          21.15785252948712,
          42.659910469423885
        ]
      }
    },
    {
      "type": "Feature",
      "id": "Node 71",
      "properties": {
        "label": "Node 71",
        "highway": "traffic_signals",
        "source": "custom_text_nodes"
      },
      "geometry": {
        "type": "Point",
        "coordinates": [
          21.150511945693186,
          42.65011209510849
        ]
      }
    },
    {
      "type": "Feature",
      "id": "Node 72",
      "properties": {
        "label": "Node 72",
        "highway": "traffic_signals",
        "source": "custom_text_nodes"
      },
      "geometry": {
        "type": "Point",
        "coordinates": [
          21.150436508564642,
          42.65003221297699
        ]
      }
    },
    {
      "type": "Feature",
      "id": "Node 73",
      "properties": {
        "label": "Node 73",
        "highway": "traffic_signals",
        "source": "custom_text_nodes"
      },
      "geometry": {
        "type": "Point",
        "coordinates": [
          21.150245736448458,
          42.65004458908858
        ]
      }
    },
    {
      "type": "Feature",
      "id": "Node 74",
      "properties": {
        "label": "Node 74",
        "highway": "traffic_signals",
        "source": "custom_text_nodes"
      },
      "geometry": {
        "type": "Point",
        "coordinates": [
          21.150177675394705,
          42.65016297117234
        ]
      }
    },
    {
      "type": "Feature",
      "id": "Node 75",
      "properties": {
        "label": "Node 75",
        "highway": "traffic_signals",
        "source": "custom_text_nodes"
      },
      "geometry": {
        "type": "Point",
        "coordinates": [
          21.15024640700071,
          42.6502414043804
        ]
      }
    },
    {
      "type": "Feature",
      "id": "Node 76",
      "properties": {
        "label": "Node 76",
        "highway": "traffic_signals",
        "source": "custom_text_nodes"
      },
      "geometry": {
        "type": "Point",
        "coordinates": [
          21.141651196775193,
          42.65074584907501
        ]
      }
    },
    {
      "type": "Feature",
      "id": "Node 77",
      "properties": {
        "label": "Node 77",
        "highway": "traffic_signals",
        "source": "custom_text_nodes"
      },
      "geometry": {
        "type": "Point",
        "coordinates": [
          21.141068486866708,
          42.6509244141961
        ]
      }
    },
    {
      "type": "Feature",
      "id": "Node 78",
      "properties": {
        "label": "Node 78",
        "highway": "traffic_signals",
        "source": "custom_text_nodes"
      },
      "geometry": {
        "type": "Point",
        "coordinates": [
          21.1410222187612,
          42.651022096159174
        ]
      }
    },
    {
      "type": "Feature",
      "id": "Node 79",
      "properties": {
        "label": "Node 79",
        "highway": "traffic_signals",
        "source": "custom_text_nodes"
      },
      "geometry": {
        "type": "Point",
        "coordinates": [
          21.13157201907657,
          42.64852391144497
        ]
      }
    },
    {
      "type": "Feature",
      "id": "Node 80",
      "properties": {
        "label": "Node 80",
        "highway": "traffic_signals",
        "source": "custom_text_nodes"
      },
      "geometry": {
        "type": "Point",
        "coordinates": [
          21.130983546521364,
          42.64823323739942
        ]
      }
    },
    {
      "type": "Feature",
      "id": "Node 81",
      "properties": {
        "label": "Node 81",
        "highway": "traffic_signals",
        "source": "custom_text_nodes"
      },
      "geometry": {
        "type": "Point",
        "coordinates": [
          21.131564482628463,
          42.648242060929874
        ]
      }
    },
    {
      "type": "Feature",
      "id": "Node 82",
      "properties": {
        "label": "Node 82",
        "highway": "traffic_signals",
        "source": "custom_text_nodes"
      },
      "geometry": {
        "type": "Point",
        "coordinates": [
          21.177806002341196,
          42.66628627511692
        ]
      }
    },
    {
      "type": "Feature",
      "id": "Node 83",
      "properties": {
        "label": "Node 83",
        "highway": "traffic_signals",
        "source": "custom_text_nodes"
      },
      "geometry": {
        "type": "Point",
        "coordinates": [
          21.177484259940034,
          42.66616319048147
        ]
      }
    },
    {
      "type": "Feature",
      "id": "Node 84",
      "properties": {
        "label": "Node 84",
        "highway": "traffic_signals",
        "source": "custom_text_nodes"
      },
      "geometry": {
        "type": "Point",
        "coordinates": [
          21.177299882445322,
          42.66634039041847
        ]
      }
    },
    {
      "type": "Feature",
      "id": "Node 85",
      "properties": {
        "label": "Node 85",
        "highway": "traffic_signals",
        "source": "custom_text_nodes"
      },
      "geometry": {
        "type": "Point",
        "coordinates": [
          21.177591507407023,
          42.66645925486739
        ]
      }
    },
    {
      "type": "Feature",
      "id": "Splitlane Node 4",
      "properties": {
        "id": "Splitlane Node 4",
        "kind": "traffic_light_node"
      },
      "geometry": {
        "type": "Point",
        "coordinates": [
          21.163952773553206,
          42.65506572713825
        ]
      }
    }
  ]
}